     2.01           GLONASS NAV DATA                        RINEX VERSION / TYPE
CCRINEXG V1.4 UX    CDDIS               02-MAR-26 23:53     PGM / RUN BY / DATE 
IGS BROADCAST EPHEMERIS FILE                                COMMENT             
teqc  2019Feb25                         20260302  1:03:     COMMENT             
  2026     3     2    0.465661287308D-09                    CORR TO SYSTEM TIME 
    18                                                      LEAP SECONDS        
                                                            END OF HEADER       
16 26  3  2 21 15  0.0 0.459020957351D-04 0.000000000000D+00 0.756000000000D+05
   -0.119426220703D+05-0.673160552978D+00-0.279396772385D-08 0.000000000000D+00
   -0.131512446289D+05-0.241567420960D+01-0.186264514923D-08-0.100000000000D+01
    0.182930483398D+05-0.218023777008D+01-0.279396772385D-08 0.000000000000D+00
17 26  3  2 21 15  0.0 0.274735502899D-03 0.272848410532D-11 0.756000000000D+05
    0.472955517578D+04 0.302343940735D+01-0.000000000000D+00 0.100000000000D+01
   -0.975763671875D+04 0.926900863648D+00 0.931322574616D-09 0.400000000000D+01
    0.230920297852D+05-0.231116294861D+00-0.279396772385D-08 0.000000000000D+00
18 26  3  2 21 15  0.0 0.249728560448D-03 0.909494701773D-12 0.756000000000D+05
   -0.119219580078D+05 0.237279891968D+01-0.186264514923D-08 0.000000000000D+00
   -0.128428032227D+05 0.909753799438D+00-0.931322574616D-09-0.300000000000D+01
    0.185255590820D+05 0.216380023956D+01-0.279396772385D-08 0.000000000000D+00
19 26  3  2 21 15  0.0 0.362563878298D-04 0.181898940355D-11 0.756000000000D+05
   -0.234758452148D+05 0.343500137329D+00-0.372529029846D-08 0.000000000000D+00
   -0.957788427734D+04 0.277470588684D+00-0.372529029846D-08 0.300000000000D+01
    0.302743750000D+04 0.352872943878D+01-0.931322574616D-09 0.000000000000D+00
23 26  3  2 21 15  0.0-0.180374830961D-03 0.000000000000D+00 0.756300000000D+05
    0.226532817383D+05-0.654153823852D+00 0.372529029846D-08 0.000000000000D+00
    0.103303984375D+05-0.447518348694D+00 0.372529029846D-08 0.300000000000D+01
   -0.557675341797D+04-0.349112033844D+01 0.186264514923D-08 0.000000000000D+00
24 26  3  2 21 15  0.0-0.151618383825D-03-0.181898940355D-11 0.756000000000D+05
    0.207879497070D+05 0.196502685547D+01 0.186264514923D-08 0.000000000000D+00
   -0.111268261719D+04 0.468090057373D+00 0.465661287308D-08 0.200000000000D+01
    0.147451562500D+05-0.273866176605D+01 0.000000000000D+00 0.000000000000D+00
26 26  3  2 21 15  0.0-0.275941565633D-04 0.000000000000D+00 0.759300000000D+05
   -0.210636376953D+04-0.198147106171D+01 0.279396772385D-08 0.400000000000D+01
    0.150030878906D+05 0.199347305298D+01 0.000000000000D+00-0.600000000000D+01
    0.205543134766D+05-0.165803337097D+01-0.931322574616D-09 0.000000000000D+00
27 26  3  2 21 15  0.0-0.257226638496D-03-0.909494701773D-12 0.756300000000D+05
   -0.193071411133D+05 0.635518074036D+00 0.000000000000D+00 0.100000000000D+01
    0.158124633789D+05-0.382840156555D+00-0.279396772385D-08-0.500000000000D+01
   -0.526209033203D+04-0.348667335510D+01 0.000000000000D+00 0.000000000000D+00
 1 26  3  2 21 45  0.0 0.160349532962D-03 0.909494701773D-12 0.774000000000D+05
    0.109478208008D+05-0.193032550812D+01 0.279396772385D-08 0.000000000000D+00
    0.328274023438D+04 0.245457649231D+01 0.186264514923D-08 0.100000000000D+01
    0.228089560547D+05 0.575020790100D+00-0.186264514923D-08 0.000000000000D+00
 2 26  3  2 21 45  0.0 0.121295452118D-04 0.000000000000D+00 0.774000000000D+05
    0.180727397461D+05-0.136837959290D+01 0.931322574616D-09 0.000000000000D+00
   -0.113698837891D+05 0.134961986542D+01 0.372529029846D-08-0.400000000000D+01
    0.140597172852D+05 0.285488414764D+01-0.931322574616D-09 0.000000000000D+00
 3 26  3  2 21 45  0.0 0.139805488288D-03 0.909494701773D-12 0.774000000000D+05
    0.144293994141D+05 0.223755836487D+00-0.186264514923D-08 0.000000000000D+00
   -0.206176137695D+05-0.587393760681D+00 0.279396772385D-08 0.500000000000D+01
   -0.429409716797D+04 0.352167892456D+01 0.000000000000D+00 0.000000000000D+00
 7 26  3  2 21 45  0.0 0.119142234325D-03 0.000000000000D+00 0.774300000000D+05
   -0.144761030273D+05-0.212877273560D+00 0.931322574616D-09 0.000000000000D+00
    0.205557602539D+05 0.563783645630D+00-0.279396772385D-08 0.500000000000D+01
    0.420652929688D+04-0.353213214874D+01 0.000000000000D+00 0.000000000000D+00
 8 26  3  2 21 45  0.0-0.339187681675D-05 0.000000000000D+00 0.774300000000D+05
   -0.260571923828D+04-0.155873680115D+01 0.279396772385D-08 0.000000000000D+00
    0.169040380859D+05 0.206629467011D+01 0.000000000000D+00 0.600000000000D+01
    0.189780341797D+05-0.206506156921D+01-0.186264514923D-08 0.000000000000D+00
 9 26  3  2 21 45  0.0 0.311391428113D-03 0.272848410532D-11 0.774000000000D+05
   -0.116504472656D+05-0.121459579468D+01-0.000000000000D+00 0.000000000000D+00
    0.129832226562D+04-0.284878349304D+01-0.931322574616D-09-0.200000000000D+01
    0.226661816406D+05-0.469740867615D+00-0.279396772385D-08 0.000000000000D+00
10 26  3  2 21 45  0.0-0.458191148937D-03-0.545696821064D-11 0.774300000000D+05
   -0.336189306641D+04-0.881002426148D+00 0.279396772385D-08 0.000000000000D+00
    0.165500053711D+05-0.246543407440D+01 0.000000000000D+00-0.700000000000D+01
    0.190711435547D+05 0.199032402039D+01-0.186264514923D-08 0.000000000000D+00
11 26  3  2 21 45  0.0 0.251578167081D-04-0.181898940355D-11 0.774300000000D+05
    0.686423974609D+04-0.744514465332D-01 0.558793544769D-08 0.000000000000D+00
    0.241358647461D+05-0.652353286743D+00 0.000000000000D+00 0.000000000000D+00
    0.465429687500D+04 0.349619293213D+01 0.000000000000D+00 0.000000000000D+00
15 26  3  2 21 45  0.0 0.585438683629D-04-0.909494701773D-12 0.774000000000D+05
   -0.724174267578D+04 0.479269027710D-01-0.465661287308D-08 0.000000000000D+00
   -0.241640458984D+05 0.530720710754D+00-0.931322574616D-09 0.000000000000D+00
   -0.373299414062D+04-0.351575469971D+01-0.000000000000D+00 0.000000000000D+00
16 26  3  2 21 45  0.0 0.459020957351D-04 0.000000000000D+00 0.774000000000D+05
   -0.132971337891D+05-0.793113708496D+00-0.372529029846D-08 0.000000000000D+00
   -0.168865048828D+05-0.170824432373D+01-0.931322574616D-09-0.100000000000D+01
    0.137113569336D+05-0.287751007080D+01-0.186264514923D-08 0.000000000000D+00
17 26  3  2 21 45  0.0 0.274741090834D-03 0.272848410532D-11 0.774000000000D+05
    0.101547543945D+05 0.295269680023D+01 0.931322574616D-09 0.100000000000D+01
   -0.852335986328D+04 0.440734863281D+00 0.186264514923D-08 0.400000000000D+01
    0.217889892578D+05-0.120742511749D+01-0.186264514923D-08 0.000000000000D+00
18 26  3  2 21 45  0.0 0.249731354415D-03 0.181898940355D-11 0.774000000000D+05
   -0.713963623047D+04 0.290118885040D+01-0.186264514923D-08 0.000000000000D+00
   -0.114383608398D+05 0.619556427002D+00-0.000000000000D+00-0.300000000000D+01
    0.216535356445D+05 0.128930950165D+01-0.279396772385D-08 0.000000000000D+00
19 26  3  2 21 45  0.0 0.362601131201D-04 0.181898940355D-11 0.774000000000D+05
   -0.220803051758D+05 0.120406723022D+01-0.372529029846D-08 0.000000000000D+00
   -0.894445410156D+04 0.385046958923D+00-0.279396772385D-08 0.300000000000D+01
    0.918059863281D+04 0.326382732391D+01-0.186264514923D-08 0.000000000000D+00
23 26  3  2 21 45  0.0-0.180376693606D-03 0.000000000000D+00 0.774300000000D+05
    0.206916601562D+05-0.151641082764D+01 0.372529029846D-08 0.000000000000D+00
    0.944438574219D+04-0.494099617004D+00 0.279396772385D-08 0.300000000000D+01
   -0.115641875000D+05-0.311843395233D+01 0.279396772385D-08 0.000000000000D+00
24 26  3  2 21 45  0.0-0.151617452502D-03-0.181898940355D-11 0.774000000000D+05
    0.237382568359D+05 0.127875137329D+01 0.372529029846D-08 0.000000000000D+00
   -0.657205566406D+03 0.655603408814D-01 0.465661287308D-08 0.200000000000D+01
    0.930927685547D+04-0.326203250885D+01 0.000000000000D+00 0.000000000000D+00
26 26  3  2 21 45  0.0-0.275932252407D-04 0.000000000000D+00 0.774300000000D+05
   -0.510957666016D+04-0.134407711029D+01 0.186264514923D-08 0.100000000000D+01
    0.185222431641D+05 0.186899662018D+01 0.000000000000D+00-0.600000000000D+01
    0.168161962891D+05-0.246857261658D+01-0.931322574616D-09 0.000000000000D+00
 1 26  3  2 22 15  0.0 0.160352326930D-03 0.909494701773D-12 0.792000000000D+05
    0.778209423828D+04-0.155733871460D+01 0.372529029846D-08 0.000000000000D+00
    0.798578906250D+04 0.272826862335D+01 0.931322574616D-09 0.100000000000D+01
    0.229495859375D+05-0.419725418091D+00-0.186264514923D-08 0.000000000000D+00
 2 26  3  2 22 15  0.0 0.121304765344D-04 0.000000000000D+00 0.792000000000D+05
    0.154688295898D+05-0.147908401489D+01 0.279396772385D-08 0.000000000000D+00
   -0.828936572266D+04 0.206084632873D+01 0.279396772385D-08-0.400000000000D+01
    0.185927094727D+05 0.214933681488D+01-0.186264514923D-08 0.000000000000D+00
 3 26  3  2 22 15  0.0 0.139807350934D-03 0.909494701773D-12 0.796800000000D+05
    0.143101191406D+05-0.323875427246D+00-0.000000000000D+00 0.000000000000D+00
   -0.210510908203D+05 0.131964683533D+00 0.279396772385D-08 0.500000000000D+01
    0.212881591797D+04 0.356868171692D+01-0.000000000000D+00 0.000000000000D+00
 7 26  3  2 22 15  0.0 0.119142234325D-03 0.000000000000D+00 0.792000000000D+05
   -0.143388583984D+05 0.332945823669D+00 0.000000000000D+00 0.000000000000D+00
    0.209421274414D+05-0.160847663879D+00-0.279396772385D-08 0.500000000000D+01
   -0.223198144531D+04-0.357518863678D+01 0.000000000000D+00 0.000000000000D+00
 8 26  3  2 22 15  0.0-0.339187681675D-05 0.000000000000D+00 0.792000000000D+05
   -0.483745849609D+04-0.921631813049D+00 0.186264514923D-08 0.000000000000D+00
    0.203958041992D+05 0.176569080353D+01-0.186264514923D-08 0.600000000000D+01
    0.145781225586D+05-0.279234027862D+01-0.931322574616D-09 0.000000000000D+00
